ISS (ZARYA)             
1 25544U 98067A   25358.21340367  .00012440  00000+0  22738-3 0  9994
2 25544  51.6319  85.6574 0003170 294.2840  65.7818 15.49773492544630
CSS (TIANHE)            
1 48274U 21035A   25358.24242934  .00018555  00000+0  22953-3 0  9996
2 48274  41.4687 306.8504 0008109 132.6319 227.5205 15.59630763265827
ISS (NAUKA)             
1 49044U 21066A   25358.21340367  .00012440  00000+0  22738-3 0  9990
2 49044  51.6319  85.6574 0003170 294.2840  65.7818 15.49773492230442
FREGAT DEB              
1 49271U 11037PF  25355.71975141  .00004375  00000+0  99639-2 0  9996
2 49271  51.6526 172.8815 0862706 243.3133 107.6905 12.34516267203044
CSS (WENTIAN)           
1 53239U 22085A   25358.24242934  .00018555  00000+0  22953-3 0  9999
2 53239  41.4687 306.8504 0008109 132.6319 227.5205 15.59630763173844
CSS (MENGTIAN)          
1 54216U 22143A   25358.24242934  .00018555  00000+0  22953-3 0  9990
2 54216  41.4687 306.8504 0008109 132.6319 227.5205 15.59630763158641
SHENZHOU-20 (SZ-20)     
1 63632U 25082A   25358.24242934  .00018555  00000+0  22953-3 0  9997
2 63632  41.4687 306.8504 0008109 132.6319 227.5205 15.59630763255304
PROGRESS-MS 31          
1 64751U 25146A   25358.21340367  .00012440  00000+0  22738-3 0  9995
2 64751  51.6319  85.6574 0003170 294.2840  65.7818 15.49773492  6759
TIANZHOU-9              
1 64786U 25149A   25358.24242934  .00018555  00000+0  22953-3 0  9992
2 64786  41.4687 306.8504 0008109 132.6319 227.5205 15.59630763255305
CREW DRAGON 11          
1 65077U 25166A   25358.21340367  .00012440  00000+0  22738-3 0  9999
2 65077  51.6319  85.6574 0003170 294.2840  65.7818 15.49773492  2140
DRAGON CRS-33           
1 65304U 25186A   25358.21340367  .00012440  00000+0  22738-3 0  9994
2 65304  51.6319  85.6574 0003170 294.2840  65.7818 15.49773492   118
PROGRESS-MS 32          
1 65586U 25204A   25358.21340367  .00012440  00000+0  22738-3 0  9997
2 65586  51.6319  85.6574 0003170 294.2840  65.7818 15.49773492   277
